STARLINK-2093
1 17374C 21005AB  21326.13436918 -.00014825  00000-0 -99318-3 0  3261
2 17374  53.0519 263.2132 0001599  53.6405 275.3809 15.06417649    14
